OBJECT_NAME,OBJECT_ID,EPOCH,MEAN_MOTION,ECCENTRICITY,INCLINATION,RA_OF_ASC_NODE,ARG_OF_PERICENTER,MEAN_ANOMALY,EPHEMERIS_TYPE,CLASSIFICATION_TYPE,NORAD_CAT_ID,ELEMENT_SET_NO,REV_AT_EPOCH,BSTAR,MEAN_MOTION_DOT,MEAN_MOTION_DDOT
STARLINK-3597,2022-022AY,2026-06-09T16:00:25.150464,15.08836164,.000096,53.1627,306.1678,96.8824,263.2277,0,U,51898,999,23718,.8791015E-4,.1111E-4,0
2022-023A,2022-023A,2026-06-09T23:40:23.320992,15.17955678,.01055698,63.4867,294.8663,343.0488,16.7106,0,U,51946,999,23662,.56513301E-3,.13132E-3,0
2022-023B,2022-023B,2026-06-08T23:52:39.946656,15.17937818,.00993703,63.4858,297.6184,347.4126,12.4506,0,U,51947,999,23647,.10720786E-3,.2233E-4,0
2022-023C,2022-023C,2026-06-08T06:38:25.465632,15.18020411,.0102132,63.4955,301.4742,350.4145,9.5016,0,U,51948,999,23636,.2293E-3,.5127E-4,0
2022-023D,2022-023D,2026-06-08T14:59:15.377856,15.17971224,.01234643,63.4553,300.8342,355.8788,4.1295,0,U,51949,999,23641,.5349172E-3,.13119E-3,0
2022-023E,2022-023E,2026-06-09T23:31:25.034304,13.56286253,.01591706,63.4628,332.3166,348.6579,11.0881,0,U,51950,999,22105,.10210284E-3,-.15E-6,0
2022-023F,2022-023F,2026-06-08T17:05:24.823104,15.17938636,.01293236,63.4454,302.2925,342.7663,16.9077,0,U,51951,999,23642,.62557508E-3,.15685E-3,0
STARLINK-3700,2022-025A,2026-06-09T16:14:47.848416,15.31697480,.00009175,53.1608,305.7422,63.0241,297.0854,0,U,51956,999,23526,-.22086256E-4,-.105E-4,0
STARLINK-3694,2022-025B,2026-06-09T17:42:43.430688,15.31705986,.00014285,53.1619,328.6784,80.0632,280.0530,0,U,51957,999,23493,-.2895942E-5,-.455E-5,0
STARLINK-3692,2022-025C,2026-06-09T16:01:21.454752,15.31699978,.00009905,53.1597,305.6987,82.1537,277.9577,0,U,51958,999,23526,.43758735E-4,.993E-5,0
STARLINK-3704,2022-025D,2026-06-09T17:37:03.541728,15.31717721,.00009116,53.1605,329.2683,73.4956,286.6145,0,U,51959,999,23492,.10390826E-3,.2862E-4,0
STARLINK-3691,2022-025E,2026-06-09T17:15:50.586336,15.31697007,.00012113,53.1608,328.5803,92.7330,267.3810,0,U,51960,999,23493,.37462845E-4,.797E-5,0
STARLINK-3697,2022-025G,2026-06-09T17:11:30.902496,15.31705198,.00010119,53.1614,316.2058,76.1398,283.9716,0,U,51962,999,23511,.65065553E-4,.1655E-4,0
STARLINK-3675,2022-025H,2026-06-09T15:54:38.791872,15.31697580,.00011582,53.1603,305.7190,76.1842,283.9288,0,U,51963,999,23526,.40007671E-4,.876E-5,0
STARLINK-3690,2022-025J,2026-06-09T16:51:23.609376,15.31701712,.00010719,53.1612,316.2586,71.5305,288.5813,0,U,51964,999,23511,.46659063E-4,.1083E-4,0
STARLINK-3696,2022-025K,2026-06-09T16:55:49.073376,15.31695150,.00010539,53.1607,329.1933,99.2749,260.8372,0,U,51965,999,23492,.42741369E-4,.961E-5,0
STARLINK-3699,2022-025L,2026-06-09T16:42:20.586240,15.31702063,.00011964,53.1620,328.9898,99.1720,260.9417,0,U,51966,999,23492,.25300629E-4,.42E-5,0
STARLINK-3681,2022-025N,2026-06-09T16:37:57.326304,15.31697995,.00010772,53.1606,316.3052,80.9788,279.1336,0,U,51968,999,23511,.27069129E-4,.475E-5,0
STARLINK-3680,2022-025P,2026-06-09T16:58:19.463808,15.31514636,.00019131,53.1619,316.2837,63.6216,296.4982,0,U,51969,999,23510,-.7805506E-3,-.24369E-3,0
STARLINK-3677,2022-025Q,2026-06-09T18:48:45.570528,15.30189158,.0001292,53.1598,328.9469,75.7662,284.3483,0,U,51970,999,23493,.62192629E-4,.1483E-4,0
STARLINK-3669,2022-025R,2026-06-09T17:18:15.902496,15.31702283,.0001066,53.1615,316.3799,95.2337,264.8786,0,U,51971,999,23511,.25296569E-4,.42E-5,0
STARLINK-3671,2022-025S,2026-06-09T16:59:45.781728,15.29382792,.00011129,53.1566,329.2842,64.3368,295.7747,0,U,51972,999,23492,.12369351E-3,.3218E-4,0
STARLINK-3679,2022-025T,2026-06-09T18:02:52.480320,15.31702112,.00006544,53.1598,328.7042,77.7606,282.3469,0,U,51973,999,23493,.42606061E-4,.958E-5,0
STARLINK-3672,2022-025U,2026-06-09T18:09:37.586592,15.31708198,.00010977,53.1600,328.9135,81.7981,278.3145,0,U,51974,999,23492,.93111875E-4,.2526E-4,0
STARLINK-3674,2022-025V,2026-06-09T16:44:34.549440,15.31694191,.00010492,53.1605,315.8150,86.4497,273.6624,0,U,51975,999,23512,.53192177E-4,.1286E-4,0
STARLINK-3660,2022-025X,2026-06-09T18:11:37.896864,15.08830871,.00011414,53.1635,325.7672,120.6320,239.4784,0,U,51977,999,23523,.59552635E-4,.66E-5,0
STARLINK-3649,2022-025AA,2026-06-09T16:11:00.110112,15.08829475,.00012763,53.1649,346.1297,83.6102,276.5035,0,U,51980,999,23494,.8242688E-5,-.157E-5,0
STARLINK-3635,2022-025AB,2026-06-09T16:32:12.137568,15.08817639,.0001325,53.1646,346.0659,102.4112,257.7028,0,U,51981,999,23494,.14409874E-3,.2005E-4,0
STARLINK-3655,2022-025AD,2026-06-09T19:37:39.250560,15.08849286,.00014293,53.1655,345.4947,86.6890,273.4265,0,U,51983,999,23496,.11373982E-3,.1523E-4,0
STARLINK-3664,2022-025AE,2026-06-09T18:56:39.982560,15.08828754,.00011416,53.1639,345.7027,84.8062,275.3060,0,U,51984,999,23496,.60298657E-4,.672E-5,0
