STARLINK-3597           
1 51898U 22022AY  26160.66695776  .00001111  00000+0  87910-4 0  9998
2 51898  53.1627 306.1678 0000960  96.8824 263.2277 15.08836164237182
2022-023A               
1 51946U 22023A   26160.98638103  .00013132  00000+0  56513-3 0  9999
2 51946  63.4867 294.8663 0105569 343.0488  16.7106 15.17955678236629
2022-023B               
1 51947U 22023B   26159.99490679  .00002233  00000+0  10721-3 0  9994
2 51947  63.4858 297.6184 0099370 347.4126  12.4506 15.17937818236474
2022-023C               
1 51948U 22023C   26159.27668363  .00005127  00000+0  22930-3 0  9993
2 51948  63.4955 301.4742 0102132 350.4145   9.5016 15.18020411236367
2022-023D               
1 51949U 22023D   26159.62448354  .00013119  00000+0  53492-3 0  9996
2 51949  63.4553 300.8342 0123464 355.8788   4.1295 15.17971224236416
2022-023E               
1 51950U 22023E   26160.98015086 -.00000015  00000+0  10210-3 0  9994
2 51950  63.4628 332.3166 0159170 348.6579  11.0881 13.56286253221050
2022-023F               
1 51951U 22023F   26159.71209286  .00015685  00000+0  62558-3 0  9991
2 51951  63.4454 302.2925 0129323 342.7663  16.9077 15.17938636236429
STARLINK-3700           
1 51956U 22025A   26160.67694269 -.00001050  00000+0 -22086-4 0  9990
2 51956  53.1608 305.7422 0000917  63.0241 297.0854 15.31697480235264
STARLINK-3694           
1 51957U 22025B   26160.73800267 -.00000455  00000+0 -28959-5 0  9999
2 51957  53.1619 328.6784 0001428  80.0632 280.0530 15.31705986234930
STARLINK-3692           
1 51958U 22025C   26160.66760943  .00000993  00000+0  43759-4 0  9997
2 51958  53.1597 305.6987 0000990  82.1537 277.9577 15.31699978235262
STARLINK-3704           
1 51959U 22025D   26160.73406877  .00002862  00000+0  10391-3 0  9991
2 51959  53.1605 329.2683 0000911  73.4956 286.6145 15.31717721234926
STARLINK-3691           
1 51960U 22025E   26160.71933549  .00000797  00000+0  37463-4 0  9997
2 51960  53.1608 328.5803 0001211  92.7330 267.3810 15.31697007234931
STARLINK-3697           
1 51962U 22025G   26160.71632989  .00001655  00000+0  65066-4 0  9997
2 51962  53.1614 316.2058 0001011  76.1398 283.9716 15.31705198235115
STARLINK-3675           
1 51963U 22025H   26160.66294898  .00000876  00000+0  40008-4 0  9998
2 51963  53.1603 305.7190 0001158  76.1842 283.9288 15.31697580235265
STARLINK-3690           
1 51964U 22025J   26160.70235659  .00001083  00000+0  46659-4 0  9993
2 51964  53.1612 316.2586 0001071  71.5305 288.5813 15.31701712235111
STARLINK-3696           
1 51965U 22025K   26160.70542909  .00000961  00000+0  42741-4 0  9995
2 51965  53.1607 329.1933 0001053  99.2749 260.8372 15.31695150234923
STARLINK-3699           
1 51966U 22025L   26160.69607160  .00000420  00000+0  25301-4 0  9998
2 51966  53.1620 328.9898 0001196  99.1720 260.9417 15.31702063234925
STARLINK-3681           
1 51968U 22025N   26160.69302461  .00000475  00000+0  27069-4 0  9999
2 51968  53.1606 316.3052 0001077  80.9788 279.1336 15.31697995235115
STARLINK-3680           
1 51969U 22025P   26160.70716972 -.00024369  00000+0 -78055-3 0  9998
2 51969  53.1619 316.2837 0001913  63.6216 296.4982 15.31514636235101
STARLINK-3677           
1 51970U 22025Q   26160.78386077  .00001483  00000+0  62193-4 0  9994
2 51970  53.1598 328.9469 0001292  75.7662 284.3483 15.30189158234937
STARLINK-3669           
1 51971U 22025R   26160.72101739  .00000420  00000+0  25297-4 0  9993
2 51971  53.1615 316.3799 0001066  95.2337 264.8786 15.31702283235111
STARLINK-3671           
1 51972U 22025S   26160.70816877  .00003218  00000+0  12369-3 0  9991
2 51972  53.1566 329.2842 0001112  64.3368 295.7747 15.29382792234926
STARLINK-3679           
1 51973U 22025T   26160.75199630  .00000958  00000+0  42606-4 0  9994
2 51973  53.1598 328.7042 0000654  77.7606 282.3469 15.31702112234930
STARLINK-3672           
1 51974U 22025U   26160.75668503  .00002526  00000+0  93112-4 0  9996
2 51974  53.1600 328.9135 0001097  81.7981 278.3145 15.31708198234928
STARLINK-3674           
1 51975U 22025V   26160.69762210  .00001286  00000+0  53192-4 0  9996
2 51975  53.1605 315.8150 0001049  86.4497 273.6624 15.31694191235127
STARLINK-3660           
1 51977U 22025X   26160.75807751  .00000660  00000+0  59553-4 0  9997
2 51977  53.1635 325.7672 0001141 120.6320 239.4784 15.08830871235230
STARLINK-3649           
1 51980U 22025AA  26160.67430683 -.00000157  00000+0  82427-5 0  9997
2 51980  53.1649 346.1297 0001276  83.6102 276.5035 15.08829475234940
STARLINK-3635           
1 51981U 22025AB  26160.68902937  .00002005  00000+0  14410-3 0  9993
2 51981  53.1646 346.0659 0001325 102.4112 257.7028 15.08817639234947
STARLINK-3655           
1 51983U 22025AD  26160.81781540  .00001523  00000+0  11374-3 0  9995
2 51983  53.1655 345.4947 0001429  86.6890 273.4265 15.08849286234966
STARLINK-3664           
1 51984U 22025AE  26160.78935165  .00000672  00000+0  60299-4 0  9991
2 51984  53.1639 345.7027 0001141  84.8062 275.3060 15.08828754234964
